{"type": "FeatureCollection", "features": [ {"type": "Feature", "properties": {"norad_id": 17070, "name": "POLAR BEAR", "group": "nnss", "lat": 37.97206287330074, "lon": -176.09402310207454, "alt_km": 967.1169991642801, "timestamp": "2025-12-16T21:38:57.443075+00:00", "meta": {"OBJECT_NAME": "POLAR BEAR", "OBJECT_ID": "1986-088A", "EPOCH": "2025-12-16T06:35:10.801248", "MEAN_MOTION": 13.75251491, "ECCENTRICITY": 0.00411543, "INCLINATION": 89.6172, "RA_OF_ASC_NODE": 183.6323, "ARG_OF_PERICENTER": 109.0485, "MEAN_ANOMALY": 64.0417, "EPHEMERIS_TYPE": 0, "CLASSIFICATION_TYPE": "U", "NORAD_CAT_ID": 17070, "ELEMENT_SET_NO": 999, "REV_AT_EPOCH": 96027, "BSTAR": 0.00011830041, "MEAN_MOTION_DOT": 1.26e-06, "MEAN_MOTION_DDOT": 0}, "tle": {"line1": "1 17070U 86088A   25350.27443057  .00000126  00000+0  11830-3 0  9996", "line2": "2 17070  89.6172 183.6323 0041154 109.0485  64.0417 13.75251491960272"}}, "geometry": {"type": "Point", "coordinates": [-176.09402310207454, 37.97206287330074]}}, {"type": "Feature", "properties": {"norad_id": 18361, "name": "OSCAR 27", "group": "nnss", "lat": -21.798193012388374, "lon": -100.72162486423952, "alt_km": 1020.4584212657874, "timestamp": "2025-12-16T21:38:57.443085+00:00", "meta": {"OBJECT_NAME": "OSCAR 27", "OBJECT_ID": "1987-080A", "EPOCH": "2025-12-16T06:21:38.514240", "MEAN_MOTION": 13.44907404, "ECCENTRICITY": 0.01031841, "INCLINATION": 90.3742, "RA_OF_ASC_NODE": 79.4043, "ARG_OF_PERICENTER": 213.6126, "MEAN_ANOMALY": 145.8449, "EPHEMERIS_TYPE": 0, "CLASSIFICATION_TYPE": "U", "NORAD_CAT_ID": 18361, "ELEMENT_SET_NO": 999, "REV_AT_EPOCH": 87604, "BSTAR": 0.00014533512, "MEAN_MOTION_DOT": 9.6e-07, "MEAN_MOTION_DDOT": 0}, "tle": {"line1": "1 18361U 87080A   25350.26502910  .00000096  00000+0  14534-3 0  9996", "line2": "2 18361  90.3742  79.4043 0103184 213.6126 145.8449 13.44907404876047"}}, "geometry": {"type": "Point", "coordinates": [-100.72162486423952, -21.798193012388374]}}, {"type": "Feature", "properties": {"norad_id": 18362, "name": "OSCAR 29", "group": "nnss", "lat": -26.772154663705344, "lon": -100.30227033527989, "alt_km": 1029.8835815028679, "timestamp": "2025-12-16T21:38:57.443095+00:00", "meta": {"OBJECT_NAME": "OSCAR 29", "OBJECT_ID": "1987-080B", "EPOCH": "2025-12-16T06:36:12.818304", "MEAN_MOTION": 13.44449062, "ECCENTRICITY": 0.01041098, "INCLINATION": 90.3753, "RA_OF_ASC_NODE": 79.8637, "ARG_OF_PERICENTER": 236.8993, "MEAN_ANOMALY": 177.8924, "EPHEMERIS_TYPE": 0, "CLASSIFICATION_TYPE": "U", "NORAD_CAT_ID": 18362, "ELEMENT_SET_NO": 999, "REV_AT_EPOCH": 87557, "BSTAR": 0.00013689229, "MEAN_MOTION_DOT": 9e-07, "MEAN_MOTION_DDOT": 0}, "tle": {"line1": "1 18362U 87080B   25350.27514836  .00000090  00000+0  13689-3 0  9992", "line2": "2 18362  90.3753  79.8637 0104109 236.8993 177.8924 13.44449062875571"}}, "geometry": {"type": "Point", "coordinates": [-100.30227033527989, -26.772154663705344]}}, {"type": "Feature", "properties": {"norad_id": 19070, "name": "OSCAR 23", "group": "nnss", "lat": 88.80035532345893, "lon": -147.95086615125257, "alt_km": 1113.3923308275898, "timestamp": "2025-12-16T21:38:57.443105+00:00", "meta": {"OBJECT_NAME": "OSCAR 23", "OBJECT_ID": "1988-033A", "EPOCH": "2025-12-16T03:25:39.004320", "MEAN_MOTION": 13.2778761, "ECCENTRICITY": 0.01898054, "INCLINATION": 90.321, "RA_OF_ASC_NODE": 16.4981, "ARG_OF_PERICENTER": 170.4666, "MEAN_ANOMALY": 255.7139, "EPHEMERIS_TYPE": 0, "CLASSIFICATION_TYPE": "U", "NORAD_CAT_ID": 19070, "ELEMENT_SET_NO": 999, "REV_AT_EPOCH": 82298, "BSTAR": 0.00016634993, "MEAN_MOTION_DOT": 9.2e-07, "MEAN_MOTION_DDOT": 0}, "tle": {"line1": "1 19070U 88033A   25350.14281255  .00000092  00000+0  16635-3 0  9996", "line2": "2 19070  90.3210  16.4981 0189805 170.4666 255.7139 13.27787610822987"}}, "geometry": {"type": "Point", "coordinates": [-147.95086615125257, 88.80035532345893]}}, {"type": "Feature", "properties": {"norad_id": 19071, "name": "OSCAR 32", "group": "nnss", "lat": -27.885979972852994, "lon": -163.51617430582752, "alt_km": 1072.1685481150816, "timestamp": "2025-12-16T21:38:57.443115+00:00", "meta": {"OBJECT_NAME": "OSCAR 32", "OBJECT_ID": "1988-033B", "EPOCH": "2025-12-16T02:50:42.736416", "MEAN_MOTION": 13.27954419, "ECCENTRICITY": 0.01886267, "INCLINATION": 90.3215, "RA_OF_ASC_NODE": 16.6296, "ARG_OF_PERICENTER": 157.4196, "MEAN_ANOMALY": 265.1952, "EPHEMERIS_TYPE": 0, "CLASSIFICATION_TYPE": "U", "NORAD_CAT_ID": 19071, "ELEMENT_SET_NO": 999, "REV_AT_EPOCH": 82310, "BSTAR": 0.00012776614, "MEAN_MOTION_DOT": 7.3e-07, "MEAN_MOTION_DDOT": 0}, "tle": {"line1": "1 19071U 88033B   25350.11855019  .00000073  00000+0  12777-3 0  9991", "line2": "2 19071  90.3215  16.6296 0188626 157.4196 265.1952 13.27954419823103"}}, "geometry": {"type": "Point", "coordinates": [-163.51617430582752, -27.885979972852994]}}, {"type": "Feature", "properties": {"norad_id": 19223, "name": "NOVA 2", "group": "nnss", "lat": -32.08869625155737, "lon": 78.25934989230164, "alt_km": 1161.4248521068193, "timestamp": "2025-12-16T21:38:57.443125+00:00", "meta": {"OBJECT_NAME": "NOVA 2", "OBJECT_ID": "1988-052A", "EPOCH": "2025-12-16T07:37:03.645120", "MEAN_MOTION": 13.22936286, "ECCENTRICITY": 0.00302822, "INCLINATION": 89.9872, "RA_OF_ASC_NODE": 78.2681, "ARG_OF_PERICENTER": 7.1387, "MEAN_ANOMALY": 58.2578, "EPHEMERIS_TYPE": 0, "CLASSIFICATION_TYPE": "U", "NORAD_CAT_ID": 19223, "ELEMENT_SET_NO": 999, "REV_AT_EPOCH": 80995, "BSTAR": 8.2161284e-05, "MEAN_MOTION_DOT": 4.3e-07, "MEAN_MOTION_DDOT": 0}, "tle": {"line1": "1 19223U 88052A   25350.31740330  .00000043  00000+0  82161-4 0  9994", "line2": "2 19223  89.9872  78.2681 0030282   7.1387  58.2578 13.22936286809953"}}, "geometry": {"type": "Point", "coordinates": [78.25934989230164, -32.08869625155737]}}, {"type": "Feature", "properties": {"norad_id": 19419, "name": "OSCAR 25", "group": "nnss", "lat": -20.051620092453057, "lon": 20.270561809934367, "alt_km": 1123.8700902550745, "timestamp": "2025-12-16T21:38:57.443135+00:00", "meta": {"OBJECT_NAME": "OSCAR 25", "OBJECT_ID": "1988-074A", "EPOCH": "2025-12-16T02:20:40.513632", "MEAN_MOTION": 13.42623943, "ECCENTRICITY": 0.00946024, "INCLINATION": 90.0345, "RA_OF_ASC_NODE": 20.2552, "ARG_OF_PERICENTER": 236.0986, "MEAN_ANOMALY": 177.3705, "EPHEMERIS_TYPE": 0, "CLASSIFICATION_TYPE": "U", "NORAD_CAT_ID": 19419, "ELEMENT_SET_NO": 999, "REV_AT_EPOCH": 82685, "BSTAR": 0.00018077876, "MEAN_MOTION_DOT": 1.14e-06, "MEAN_MOTION_DDOT": 0}, "tle": {"line1": "1 19419U 88074A   25350.09769113  .00000114  00000+0  18078-3 0  9994", "line2": "2 19419  90.0345  20.2552 0094602 236.0986 177.3705 13.42623943826854"}}, "geometry": {"type": "Point", "coordinates": [20.270561809934367, -20.051620092453057]}}, {"type": "Feature", "properties": {"norad_id": 19420, "name": "OSCAR 31", "group": "nnss", "lat": -42.19082495909424, "lon": -159.42404498384798, "alt_km": 1037.1484825468797, "timestamp": "2025-12-16T21:38:57.443145+00:00", "meta": {"OBJECT_NAME": "OSCAR 31", "OBJECT_ID": "1988-074B", "EPOCH": "2025-12-16T02:57:50.948640", "MEAN_MOTION": 13.42585105, "ECCENTRICITY": 0.00929415, "INCLINATION": 90.0361, "RA_OF_ASC_NODE": 20.6059, "ARG_OF_PERICENTER": 230.1584, "MEAN_ANOMALY": 191.3128, "EPHEMERIS_TYPE": 0, "CLASSIFICATION_TYPE": "U", "NORAD_CAT_ID": 19420, "ELEMENT_SET_NO": 999, "REV_AT_EPOCH": 82696, "BSTAR": 0.00014421096, "MEAN_MOTION_DOT": 9.2e-07, "MEAN_MOTION_DDOT": 0}, "tle": {"line1": "1 19420U 88074B   25350.12350635  .00000092  00000+0  14421-3 0  9998", "line2": "2 19420  90.0361  20.6059 0092941 230.1584 191.3128 13.42585105826967"}}, "geometry": {"type": "Point", "coordinates": [-159.42404498384798, -42.19082495909424]}}]}